- id: gps-29486
  name: NAVSTAR 58 (USA 190)
  allegiance: friendly
  components:
    - kind: space_orbit
      data:
        line1: "1 29486U 06042A   26086.24758990 -.00000011  00000+0  00000+0 0  9998"
        line2: "2 29486  54.6989 154.5930 0106380  53.1157 319.6385  2.00574238142754"
        fov_half_angle_deg: 5.0
    - kind: symbol
      data:
        sidc_template:
          version: "10"
          context: reality
          standard_identity: friend
          symbol_set: space
          status: present
          hqtfd: not_applicable
          amplifier: unspecified
          entity: code_110700
          modifier_one: code_02
          modifier_two: code_00
